{"fetched_at":"2026-07-16T17:46:19.630Z","source":"https://celestrak.org/NORAD/elements/gp.php?NAME=CAPELLA&FORMAT=JSON","constellation":"capella","records":[{"OBJECT_NAME":"CAPELLA-11 (ACADIA-1)","OBJECT_ID":"2023-126A","EPOCH":"2026-07-15T23:53:13.454304","CLASSIFICATION_TYPE":"U","MEAN_MOTION":14.85025322,"ECCENTRICITY":0.00020648,"INCLINATION":53.0066,"RA_OF_ASC_NODE":59.8146,"ARG_OF_PERICENTER":132.4461,"MEAN_ANOMALY":227.6693,"EPHEMERIS_TYPE":0,"NORAD_CAT_ID":57693,"ELEMENT_SET_NO":999,"REV_AT_EPOCH":15640,"BSTAR":0.00025124371,"MEAN_MOTION_DOT":0.00001934,"MEAN_MOTION_DDOT":0},{"OBJECT_NAME":"CAPELLA-14 (ACADIA-4)","OBJECT_ID":"2024-066C","EPOCH":"2026-07-15T18:22:10.242912","CLASSIFICATION_TYPE":"U","MEAN_MOTION":15.07872748,"ECCENTRICITY":0.0002,"INCLINATION":45.6015,"RA_OF_ASC_NODE":104.8685,"ARG_OF_PERICENTER":156.3927,"MEAN_ANOMALY":203.705,"EPHEMERIS_TYPE":0,"NORAD_CAT_ID":59444,"ELEMENT_SET_NO":999,"REV_AT_EPOCH":11680,"BSTAR":0.00037998,"MEAN_MOTION_DOT":0.00005671,"MEAN_MOTION_DDOT":0},{"OBJECT_NAME":"CAPELLA-13 (ACADIA-3)","OBJECT_ID":"2024-142A","EPOCH":"2026-07-16T06:09:10.761984","CLASSIFICATION_TYPE":"U","MEAN_MOTION":14.87647761,"ECCENTRICITY":0.00013326,"INCLINATION":53.0047,"RA_OF_ASC_NODE":290.6814,"ARG_OF_PERICENTER":82.4177,"MEAN_ANOMALY":277.6955,"EPHEMERIS_TYPE":0,"NORAD_CAT_ID":60419,"ELEMENT_SET_NO":999,"REV_AT_EPOCH":10473,"BSTAR":0.00023851259,"MEAN_MOTION_DOT":0.00001955,"MEAN_MOTION_DDOT":0},{"OBJECT_NAME":"CAPELLA-15 (ACADIA-5)","OBJECT_ID":"2024-149CE","EPOCH":"2026-07-15T05:08:41.600832","CLASSIFICATION_TYPE":"U","MEAN_MOTION":14.9240556,"ECCENTRICITY":0.0003244,"INCLINATION":97.6759,"RA_OF_ASC_NODE":268.4148,"ARG_OF_PERICENTER":341.5394,"MEAN_ANOMALY":18.5707,"EPHEMERIS_TYPE":0,"NORAD_CAT_ID":60544,"ELEMENT_SET_NO":999,"REV_AT_EPOCH":10403,"BSTAR":0.00023867,"MEAN_MOTION_DOT":0.00002389,"MEAN_MOTION_DDOT":0},{"OBJECT_NAME":"CAPELLA-17 (ACADIA-7)","OBJECT_ID":"2025-135BH","EPOCH":"2026-07-16T06:04:09.322752","CLASSIFICATION_TYPE":"U","MEAN_MOTION":14.91626138,"ECCENTRICITY":0.000415,"INCLINATION":97.771,"RA_OF_ASC_NODE":310.4466,"ARG_OF_PERICENTER":244.8201,"MEAN_ANOMALY":115.2587,"EPHEMERIS_TYPE":0,"NORAD_CAT_ID":64583,"ELEMENT_SET_NO":999,"REV_AT_EPOCH":5818,"BSTAR":0.00031626793,"MEAN_MOTION_DOT":0.00003121,"MEAN_MOTION_DDOT":0},{"OBJECT_NAME":"CAPELLA-16 (ACADIA-6)","OBJECT_ID":"2025-188D","EPOCH":"2026-07-16T03:48:39.621024","CLASSIFICATION_TYPE":"U","MEAN_MOTION":14.94056846,"ECCENTRICITY":0.00057932,"INCLINATION":97.7378,"RA_OF_ASC_NODE":271.877,"ARG_OF_PERICENTER":132.0921,"MEAN_ANOMALY":228.0793,"EPHEMERIS_TYPE":0,"NORAD_CAT_ID":65318,"ELEMENT_SET_NO":999,"REV_AT_EPOCH":4824,"BSTAR":0.00035158051,"MEAN_MOTION_DOT":0.00003698,"MEAN_MOTION_DDOT":0},{"OBJECT_NAME":"CAPELLA-19 (ACADIA-9)","OBJECT_ID":"2026-004X","EPOCH":"2026-07-16T00:09:03.380832","CLASSIFICATION_TYPE":"U","MEAN_MOTION":14.86643462,"ECCENTRICITY":0.00015194,"INCLINATION":97.8004,"RA_OF_ASC_NODE":194.8592,"ARG_OF_PERICENTER":93.9692,"MEAN_ANOMALY":266.1698,"EPHEMERIS_TYPE":0,"NORAD_CAT_ID":67384,"ELEMENT_SET_NO":999,"REV_AT_EPOCH":2755,"BSTAR":0.00031310452,"MEAN_MOTION_DOT":0.00002726,"MEAN_MOTION_DDOT":0},{"OBJECT_NAME":"CAPELLA-18 (ACADIA-8)","OBJECT_ID":"2026-004Y","EPOCH":"2026-07-15T22:46:34.826016","CLASSIFICATION_TYPE":"U","MEAN_MOTION":14.8665689,"ECCENTRICITY":0.0001505,"INCLINATION":97.8013,"RA_OF_ASC_NODE":194.9568,"ARG_OF_PERICENTER":95.6131,"MEAN_ANOMALY":264.5257,"EPHEMERIS_TYPE":0,"NORAD_CAT_ID":67385,"ELEMENT_SET_NO":999,"REV_AT_EPOCH":2755,"BSTAR":0.00030209,"MEAN_MOTION_DOT":0.00002629,"MEAN_MOTION_DDOT":0},{"OBJECT_NAME":"CAPELLA-20 (ACADIA-10)","OBJECT_ID":"2026-067BX","EPOCH":"2026-07-15T20:51:50.099904","CLASSIFICATION_TYPE":"U","MEAN_MOTION":14.91687062,"ECCENTRICITY":0.000113,"INCLINATION":97.7588,"RA_OF_ASC_NODE":154.7086,"ARG_OF_PERICENTER":148.0816,"MEAN_ANOMALY":212.0471,"EPHEMERIS_TYPE":0,"NORAD_CAT_ID":68485,"ELEMENT_SET_NO":999,"REV_AT_EPOCH":1600,"BSTAR":0.00027607,"MEAN_MOTION_DOT":0.00002721,"MEAN_MOTION_DDOT":0}]}
