CAPELLA-11 (ACADIA-1)   
1 57693U 23126A   26196.99529461  .00001934  00000+0  25124-3 0  9996
2 57693  53.0066  59.8146 0002064 132.4461 227.6693 14.85025322156401
CAPELLA-14 (ACADIA-4)   
1 59444U 24066C   26196.76539633  .00005671  00000+0  37998-3 0  9997
2 59444  45.6015 104.8685 0002000 156.3927 203.7050 15.07872748116808
CAPELLA-13 (ACADIA-3)   
1 60419U 24142A   26197.25637456  .00001955  00000+0  23851-3 0  9997
2 60419  53.0047 290.6814 0001332  82.4177 277.6955 14.87647761104736
CAPELLA-15 (ACADIA-5)   
1 60544U 24149CE  26196.21437038  .00002389  00000+0  23867-3 0  9991
2 60544  97.6759 268.4148 0003244 341.5394  18.5707 14.92405560104031
CAPELLA-17 (ACADIA-7)   
1 64583U 25135BH  26197.25288568  .00003121  00000+0  31627-3 0  9999
2 64583  97.7710 310.4466 0004150 244.8201 115.2587 14.91626138 58186
CAPELLA-16 (ACADIA-6)   
1 65318U 25188D   26197.15879191  .00003698  00000+0  35158-3 0  9993
2 65318  97.7378 271.8770 0005793 132.0921 228.0793 14.94056846 48246
CAPELLA-19 (ACADIA-9)   
1 67384U 26004X   26197.00628913  .00002726  00000+0  31310-3 0  9991
2 67384  97.8004 194.8592 0001519  93.9692 266.1698 14.86643462 27551
CAPELLA-18 (ACADIA-8)   
1 67385U 26004Y   26196.94901419  .00002629  00000+0  30209-3 0  9997
2 67385  97.8013 194.9568 0001505  95.6131 264.5257 14.86656890 27550
CAPELLA-20 (ACADIA-10)  
1 68485U 26067BX  26196.86932986  .00002721  00000+0  27607-3 0  9993
2 68485  97.7588 154.7086 0001130 148.0816 212.0471 14.91687062 16009
